ORBCOMM FM37 [-]        
1 33064U 08031E   23265.86168083  .00002313  00000+0  36961-3 0  9992
2 33064  48.4400 102.6802 0006263 189.6662 258.3703 14.75074263820414
ORBCOMM FM40 [-]        
1 33065U 08031F   23265.83826037  .00002758  00000+0  42474-3 0  9999
2 33065  48.4426  94.1387 0007748 196.2305 249.0024 14.76096053820429
VESSELSAT 1 [-]         
1 37840U 11058C   23265.83408769  .00000432  00000+0  91408-4 0  9994
2 37840  19.9630 325.3607 0013887  61.5778 298.6025 14.11061163616738
ORBCOMM FM109 [+]       
1 40086U 14040A   23265.90851574  .00001105  00000+0  28676-3 0  9992
2 40086  47.0034 121.6113 0002323 283.1926  76.8699 14.55916599488711
ORBCOMM FM107 [+]       
1 40087U 14040B   23265.87408882  .00001078  00000+0  28073-3 0  9999
2 40087  47.0051 122.7026 0001806 249.6363 110.4328 14.55914225488788
ORBCOMM FM106 [-]       
1 40088U 14040C   23265.70667882  .00001747  00000+0  34813-3 0  9991
2 40088  47.0633 353.3866 0017932   7.2571 352.8575 14.65998974490429
ORBCOMM FM111 [-]       
1 40089U 14040D   23265.74998565  .00002860  00000+0  39813-3 0  9993
2 40089  47.0044 280.7371 0032926  51.7849 308.6002 14.79954549496214
ORBCOMM FM104 [-]       
1 40090U 14040E   23265.13338611  .00000951  00000+0  25982-3 0  9999
2 40090  47.0055 152.5721 0017187 193.0639 166.9802 14.54472444488252
